HODOYOSHI-4             
1 40011U 14033B   26182.15435762  .00001065  00000+0  12084-3 0  9998
2 40011  97.5450   6.3027 0021941 259.1823 100.6925 14.88159705650881
DEIMOS-2                
1 40013U 14033D   26182.18354826  .00001220  00000+0  12032-3 0  9990
2 40013  97.5809  56.1799 0000805  60.8909 299.2391 14.93759873639818
HODOYOSHI-3             
1 40015U 14033F   26182.19654779  .00001057  00000+0  12773-3 0  9993
2 40015  97.6431 344.6742 0031629 310.1637  49.6810 14.85416177649702
SPOT 7                  
1 40053U 14034A   26182.15328714  .00000304  00000+0  71247-4 0  9995
2 40053  98.0627 244.2847 0001406  96.4428 263.6933 14.60969851639178
SKYSAT-B                
1 40072U 14037D   26181.43926569  .00001351  00000+0  15364-3 0  9991
2 40072  98.3844 141.1601 0004456 225.7255 134.3595 14.88060267647933
WORLDVIEW-3 (WV-3)      
1 40115U 14048A   26182.18237516  .00000993  00000+0  12255-3 0  9998
2 40115  97.8563 256.8219 0000167 166.0880 194.0339 14.85045119643984
GAOFEN-2                
1 40118U 14049A   26182.16279463  .00000404  00000+0  59133-4 0  9991
2 40118  98.0110 246.3565 0007122 176.9061 183.2196 14.80913366641303
YAOGAN-21               
1 40143U 14053A   26182.19094700  .00007722  00000+0  29742-3 0  9998
2 40143  97.1463 221.8267 0009239  52.8527 307.3555 15.26577124657099
YAOGAN-22               
1 40275U 14063A   26182.17908144 -.00000065  00000+0 -49290-4 0  9995
2 40275 100.7742 333.6856 0006640 154.7259 205.4178 13.15531275561657
ASNARO                  
1 40298U 14070A   26182.18576243  .00005624  00000+0  26688-3 0  9999
2 40298  97.3456 257.9218 0006689 125.2629 234.9233 15.19635886646137
YAOGAN-24               
1 40310U 14072A   26182.18110243  .00000013  00000+0  96329-5 0  9998
2 40310  98.1506 319.6372 0013522 215.6944 144.3362 14.76100133625781
CBERS 4                 
1 40336U 14079A   26182.18668939  .00000051  00000+0  32335-4 0  9991
2 40336  98.3528 238.5787 0001371  53.1499 306.9812 14.35512667605961
YAOGAN-26               
1 40362U 14088A   26182.16438905  .00029655  00000+0  56929-3 0  9991
2 40362  97.0637 182.0509 0004224  33.3736 326.7780 15.47916913639862
SMAP                    
1 40376U 15003A   26182.16536642  .00000494  00000+0  10458-3 0  9998
2 40376  98.1277 189.0618 0001462  97.4679 262.6689 14.63379048609665
KOMPSAT-3A              
1 40536U 15014A   26182.14781916  .00034253  00000+0  48094-3 0  9999
2 40536  97.6884 174.5371 0057137 124.8956 235.7686 15.54689389623981
SENTINEL-2A             
1 40697U 15028A   26182.13077955 -.00000133  00000+0 -34166-4 0  9990
2 40697  98.5688 256.7842 0001199  95.2420 264.8900 14.30818234575727
GAOFEN-8                
1 40701U 15030A   26182.19610699  .00013563  00000+0  27516-3 0  9992
2 40701  97.6892  16.4102 0009690 139.1098 221.0879 15.46449313613610
CARBONITE 1 (CBNT-1)    
1 40718U 15032D   26182.21102622  .00001170  00000+0  14779-3 0  9995
2 40718  97.6506 359.6903 0012941 246.9139 113.0711 14.83628235591428
YAOGAN-27               
1 40878U 15040A   26182.24445289  .00000495  00000+0  14154-2 0  9998
2 40878 100.1152 168.0173 0008107 176.5327 183.5844 13.16072229519519
GAOFEN-9 01             
1 40894U 15047A   26182.16531337  .00001112  00000+0  14236-3 0  9993
2 40894  97.6268 217.2246 0028887  94.1732 266.2784 14.82911327582264
YAOGAN-28               
1 41026U 15064A   26182.21057898  .00008867  00000+0  33058-3 0  9998
2 41026  97.3095 320.1884 0011725 136.4478 223.7689 15.27598987592827
YAOGAN-29               
1 41038U 15069A   26182.21112297 -.00000137  00000+0 -10131-4 0  9993
2 41038  98.0020 210.8656 0001843  31.8636 328.2688 14.83094660572707
KENT RIDGE 1            
1 41167U 15077B   26180.60546876  .00003897  00000+0  12846-3 0  9998
2 41167  14.9780 173.6262 0008162  54.0639 306.0440 15.23202634582999
GAOFEN-4                
1 41194U 15083A   26182.05530701 -.00000324  00000+0  00000+0 0  9994
2 41194   0.3924  83.8480 0004238 111.8282 209.0303  1.00268978 38661
JASON-3                 
1 41240U 16002A   26182.13867741 -.00000036  00000+0  10495-3 0  9997
2 41240  66.0416  96.5049 0008336 272.0158  87.9906 12.87623206489045
SENTINEL-3A             
1 41335U 16011A   26182.17241663  .00000128  00000+0  71120-4 0  9999
2 41335  98.6244 249.3549 0001429  95.2551 264.8793 14.26736520540059
ZIYUAN 3-02 (ZY 3-02)   
1 41556U 16033A   26182.20020904  .00005901  00000+0  26624-3 0  9997
2 41556  97.3835 257.7049 0012761 236.2969 123.7051 15.21312319560116
CARTOSAT-2C             
1 41599U 16040A   26182.15549222  .00003907  00000+0  18809-3 0  9995
2 41599  97.4480 241.9409 0010482  89.4961 270.7474 15.19299280555836
SKYSAT-C1               
1 41601U 16040C   26182.02378833  .00011192  00000+0  31587-3 0  9996
2 41601  96.9551 212.9947 0002002  28.2182 331.9171 15.36534257559993
LAPAN-A3                
1 41603U 16040E   26182.22370973  .00003745  00000+0  11901-3 0  9990
2 41603  97.1489 177.9090 0009112 335.3229  24.7577 15.33195064556967
GAOFEN-3                
1 41727U 16049A   26182.16770829  .00000052  00000+0  29064-4 0  9991
2 41727  98.4006 189.7424 0001668  95.1171 265.0209 14.42217210520667
