OBJECT_NAME,OBJECT_ID,EPOCH,MEAN_MOTION,ECCENTRICITY,INCLINATION,RA_OF_ASC_NODE,ARG_OF_PERICENTER,MEAN_ANOMALY,EPHEMERIS_TYPE,CLASSIFICATION_TYPE,NORAD_CAT_ID,ELEMENT_SET_NO,REV_AT_EPOCH,BSTAR,MEAN_MOTION_DOT,MEAN_MOTION_DDOT
HODOYOSHI-4,2014-033B,2026-07-01T03:42:16.498368,14.88159705,.0021941,97.5450,6.3027,259.1823,100.6925,0,U,40011,999,65088,.12084E-3,.1065E-4,0
DEIMOS-2,2014-033D,2026-07-01T04:24:18.569664,14.93759873,.0000805,97.5809,56.1799,60.8909,299.2391,0,U,40013,999,63981,.12032E-3,.122E-4,0
HODOYOSHI-3,2014-033F,2026-07-01T04:43:01.729056,14.85416177,.0031629,97.6431,344.6742,310.1637,49.6810,0,U,40015,999,64970,.12773E-3,.1057E-4,0
SPOT 7,2014-034A,2026-07-01T03:40:44.008896,14.60969851,.0001406,98.0627,244.2847,96.4428,263.6933,0,U,40053,999,63917,.71247E-4,.304E-5,0
SKYSAT-B,2014-037D,2026-06-30T10:32:32.555616,14.88060267,.00044565,98.3844,141.1601,225.7255,134.3595,0,U,40072,999,64793,.15364039E-3,.1351E-4,0
WORLDVIEW-3 (WV-3),2014-048A,2026-07-01T04:22:37.213824,14.85045119,.0000167,97.8563,256.8219,166.0880,194.0339,0,U,40115,999,64398,.12255E-3,.993E-5,0
GAOFEN-2,2014-049A,2026-07-01T03:54:25.456032,14.80913366,.0007122,98.0110,246.3565,176.9061,183.2196,0,U,40118,999,64130,.59133E-4,.404E-5,0
YAOGAN-21,2014-053A,2026-07-01T04:34:57.820800,15.26577124,.0009239,97.1463,221.8267,52.8527,307.3555,0,U,40143,999,65709,.29742E-3,.7722E-4,0
YAOGAN-22,2014-063A,2026-07-01T04:17:52.636416,13.15531275,.000664,100.7742,333.6856,154.7259,205.4178,0,U,40275,999,56165,-.4929E-4,-.65E-6,0
ASNARO,2014-070A,2026-07-01T04:27:29.873952,15.19635886,.0006689,97.3456,257.9218,125.2629,234.9233,0,U,40298,999,64613,.26688E-3,.5624E-4,0
YAOGAN-24,2014-072A,2026-07-01T04:20:47.249952,14.76100133,.0013522,98.1506,319.6372,215.6944,144.3362,0,U,40310,999,62578,.96329E-5,.13E-6,0
CBERS 4,2014-079A,2026-07-01T04:28:49.963296,14.35512667,.0001371,98.3528,238.5787,53.1499,306.9812,0,U,40336,999,60596,.32335E-4,.51E-6,0
YAOGAN-26,2014-088A,2026-07-01T03:56:43.213920,15.47916913,.0004224,97.0637,182.0509,33.3736,326.7780,0,U,40362,999,63986,.56929E-3,.29655E-3,0
SMAP,2015-003A,2026-07-01T03:58:07.658688,14.63379048,.0001462,98.1277,189.0618,97.4679,262.6689,0,U,40376,999,60966,.10458E-3,.494E-5,0
KOMPSAT-3A,2015-014A,2026-07-01T03:32:51.575424,15.54689389,.0057137,97.6884,174.5371,124.8956,235.7686,0,U,40536,999,62398,.48094E-3,.34253E-3,0
SENTINEL-2A,2015-028A,2026-07-01T03:08:19.353120,14.30818234,.0001199,98.5688,256.7842,95.2420,264.8900,0,U,40697,999,57572,-.34166E-4,-.133E-5,0
GAOFEN-8,2015-030A,2026-07-01T04:42:23.643936,15.46449313,.000969,97.6892,16.4102,139.1098,221.0879,0,U,40701,999,61361,.27516E-3,.13563E-3,0
CARBONITE 1 (CBNT-1),2015-032D,2026-07-01T05:03:52.665408,14.83628235,.0012941,97.6506,359.6903,246.9139,113.0711,0,U,40718,999,59142,.14779E-3,.117E-4,0
YAOGAN-27,2015-040A,2026-07-01T05:52:00.729696,13.16072229,.0008107,100.1152,168.0173,176.5327,183.5844,0,U,40878,999,51951,.14154E-2,.495E-5,0
GAOFEN-9 01,2015-047A,2026-07-01T03:58:03.075168,14.82911327,.0028887,97.6268,217.2246,94.1732,266.2784,0,U,40894,999,58226,.14236E-3,.1112E-4,0
YAOGAN-28,2015-064A,2026-07-01T05:03:14.023872,15.27598987,.0011725,97.3095,320.1884,136.4478,223.7689,0,U,41026,999,59282,.33058E-3,.8867E-4,0
YAOGAN-29,2015-069A,2026-07-01T05:04:01.024608,14.83094660,.0001843,98.0020,210.8656,31.8636,328.2688,0,U,41038,999,57270,-.10131E-4,-.137E-5,0
KENT RIDGE 1,2015-077B,2026-06-29T14:31:52.500864,15.23202634,.00081621,14.9780,173.6262,54.0639,306.0440,0,U,41167,999,58299,.12846013E-3,.3897E-4,0
GAOFEN-4,2015-083A,2026-07-01T01:19:38.525664,1.00268978,.0004238,0.3924,83.8480,111.8282,209.0303,0,U,41194,999,3866,0,-.324E-5,0
JASON-3,2016-002A,2026-07-01T03:19:41.728224,12.87623206,.0008336,66.0416,96.5049,272.0158,87.9906,0,U,41240,999,48904,.10495E-3,-.36E-6,0
SENTINEL-3A,2016-011A,2026-07-01T04:08:16.796832,14.26736520,.0001429,98.6244,249.3549,95.2551,264.8793,0,U,41335,999,54005,.7112E-4,.128E-5,0
ZIYUAN 3-02 (ZY 3-02),2016-033A,2026-07-01T04:48:18.061056,15.21312319,.0012761,97.3835,257.7049,236.2969,123.7051,0,U,41556,999,56011,.26624E-3,.5901E-4,0
CARTOSAT-2C,2016-040A,2026-07-01T03:43:54.527808,15.19299280,.0010482,97.4480,241.9409,89.4961,270.7474,0,U,41599,999,55583,.18809E-3,.3907E-4,0
SKYSAT-C1,2016-040C,2026-07-01T00:34:15.311712,15.36534257,.0002002,96.9551,212.9947,28.2182,331.9171,0,U,41601,999,55999,.31587E-3,.11192E-3,0
LAPAN-A3,2016-040E,2026-07-01T05:22:08.520672,15.33195064,.0009112,97.1489,177.9090,335.3229,24.7577,0,U,41603,999,55696,.11901E-3,.3745E-4,0
GAOFEN-3,2016-049A,2026-07-01T04:01:29.996256,14.42217210,.0001668,98.4006,189.7424,95.1171,265.0209,0,U,41727,999,52066,.29064E-4,.52E-6,0
